{"fetched_at":"2026-05-05T02:34:36Z","count":8116,"tles":[{"name":"GRBALPHA","line1":"1 47959U 21022AD  25160.45426454  .07979523  25524-5  90936-3 0  9994","line2":"2 47959  97.3889  75.6219 0010935 224.3674 135.6748 16.36820468232696","category":"Other"},{"name":"STARLINK-32676","line1":"1 62426U 24249T   26124.37072440  .00016122  00000+0  59391-3 0  9994","line2":"2 62426  43.0028   0.1068 0001082 270.8395  89.2333 15.27590801 76323","category":"Starlink"},{"name":"STARLINK-36893","line1":"1 68112U 26044M   26124.61392697  .00024384  00000+0  75517-3 0  9990","line2":"2 68112  97.2858  85.5313 0001655  90.0665 270.0767 15.33445811 10158","category":"Starlink"},{"name":"GOES 12","line1":"1 26871U 01031A   26105.69697803 -.00000259  00000+0  00000+0 0  9996","line2":"2 26871  12.0733  37.7890 0008402 305.0702 239.3832  0.99138646 90147","category":"Weather"},{"name":"KL-ALPHA B","line1":"1 44786U 19077B   26124.59174690  .00000017  00000+0  71138-5 0  9991","line2":"2 44786  88.9128 224.9771 0024250 277.5633  82.2767 13.55997656319275","category":"Other"},{"name":"STARLINK-5080","line1":"1 55437U 23014AY  23362.17295355  .00034281  00000+0  20245-2 0  9999","line2":"2 55437  69.9965 322.1038 0005883 298.7248  61.3326 15.11347712 50067","category":"Starlink"},{"name":"STARLINK-32144","line1":"1 60269U 24131Q   26124.30010967 -.00001373  00000+0 -32466-4 0  9995","line2":"2 60269  53.1603 154.0621 0001064  81.0096 279.1025 15.31709104100285","category":"Starlink"},{"name":"ZK-1A R/B","line1":"1 66411U 25256C   25343.64951453  .00019584  00000+0  84958-3 0  9995","line2":"2 66411  98.3223  51.2092 0228619 255.2836 102.2950 15.01876313  4586","category":"Other"},{"name":"COSMOS 2251 DEB","line1":"1 34680U 93036YA  26104.85678829  .00002279  00000+0  46039-3 0  9992","line2":"2 34680  74.0413 254.5139 0006533 314.4063 206.5703 14.61986999901262","category":"Other"},{"name":"STARLINK-3306","line1":"1 50163U 21125H   26124.33058651  .00000359  00000+0  40642-4 0  9998","line2":"2 50163  53.2191 349.3278 0001307  79.9094 280.2046 15.08838649245132","category":"Starlink"},{"name":"STARLINK-11669 [DTC]","line1":"1 63548U 25075A   26124.45332940  .00185124  00000+0  14094-2 0  9990","line2":"2 63548  42.9997 177.2417 0002054 245.5143 114.5511 15.70921933 62020","category":"Starlink"},{"name":"UNKNOWN","line1":"1 81652U          26100.73196281  .00000684  00000+0  85323-3 0  9999","line2":"2 81652 102.1440  18.8956 0364548  93.3885 299.0352 13.44549731594648","category":"Other"},{"name":"FENGYUN 1C DEB","line1":"1 30717U 99025ASB 26104.15574754  .00001712  00000+0  79714-3 0  9995","line2":"2 30717  99.0049 182.3331 0045470 266.8671  92.7302 14.21372547982758","category":"Weather"},{"name":"FENGYUN 1C DEB","line1":"1 47001U 99025FAB 26100.96042121  .00003899  00000+0  12401-2 0  9999","line2":"2 47001  99.2892 173.9563 0051435  62.9363 297.7058 14.39761707756296","category":"Weather"},{"name":"STARLINK-6203","line1":"1 56899U 23083Z   26124.45991839  .00000795  00000+0  38401-4 0  9996","line2":"2 56899  43.0038 126.4856 0001394 279.9174  80.1520 15.27576051160300","category":"Starlink"},{"name":"FENGYUN 1C DEB","line1":"1 37918U 99025ENT 26104.83892930  .00000867  00000+0  31661-3 0  9998","line2":"2 37918  99.0439  64.9043 0054332 283.8984  75.6160 14.34923303 53071","category":"Weather"},{"name":"STARLINK-4033","line1":"1 52702U 22053AY  26124.55599668  .00002875  00000+0  19868-3 0  9992","line2":"2 52702  53.2168 258.3557 0001356  86.7592 273.3556 15.08837376219528","category":"Starlink"},{"name":"STARLINK-30614","line1":"1 58098U 23161B   26124.54088312  .00001891  00000+0  75982-4 0  9992","line2":"2 58098  53.1599 266.0384 0001294  59.8983 300.2146 15.30189527142971","category":"Starlink"},{"name":"STARLINK-34350","line1":"1 64276U 25120W   26123.66670139  .00066688  00000+0  15306-2 0  9997","line2":"2 64276  53.1607 220.5345 0001348  76.3752 316.1145 15.42120725  5887","category":"Starlink"},{"name":"STARLINK-11289 [DTC]","line1":"1 60991U 24158B   26124.37578477  .00001816  00000+0  19839-4 0  9997","line2":"2 60991  53.1583   6.5417 0000890 106.3611 253.7505 15.69709682 96342","category":"Starlink"},{"name":"STARLINK-36179","line1":"1 67119U 25299T   26124.31061144  .00023910  00000+0  87532-3 0  9998","line2":"2 67119  43.0002 214.7934 0000968 236.1526 123.9234 15.27589627 21620","category":"Starlink"},{"name":"TITAN 3C TRANSTAGE DEB","line1":"1 08832U 76023J   26104.37660866 -.00000024  00000+0  00000+0 0  9999","line2":"2 08832  21.7296  43.5191 0136287  96.2971  98.5751  0.98258524116976","category":"Other"},{"name":"ARSAT 2","line1":"1 40941U 15054B   26124.53498994 -.00000217  00000+0  00000+0 0  9998","line2":"2 40941   0.0654  80.4160 0002364 317.7260 295.8870  1.00272659 38861","category":"Other"},{"name":"STARLINK-4569","line1":"1 53687U 22105AR  26124.39477749 -.00001389  00000+0 -92118-4 0  9991","line2":"2 53687  97.5372   5.9999 0002715  90.3678 269.7860 15.05655543201687","category":"Starlink"},{"name":"STARLINK-35085","line1":"1 65419U 25192R   26124.60930699  .00024022  00000+0  78303-3 0  9994","line2":"2 65419  53.1589 332.0564 0000958  82.0789 278.0321 15.31713815 37959","category":"Starlink"},{"name":"FENGYUN 1C DEB","line1":"1 31679U 99025CCM 23142.65782849  .00013045  00000+0  29779-2 0  9990","line2":"2 31679  98.9098  84.6769 0064263  13.0361 347.2476 14.54621866454566","category":"Weather"},{"name":"ONEWEB-0107","line1":"1 48048U 21025G   26124.53102169 -.00000125  00000+0 -37727-3 0  9994","line2":"2 48048  87.8963 328.9052 0001494  87.6863 272.4437 13.13471321247796","category":"Other"},{"name":"STARLINK-32332","line1":"1 62490U 25003D   26124.61749044  .00027003  00000+0  98685-3 0  9991","line2":"2 62490  43.0036 333.2377 0000509 277.1951  82.8843 15.27591924 75205","category":"Starlink"},{"name":"STARLINK-36905","line1":"1 68176U 26050K   26123.97953182  .00057355  00000+0  13169-2 0  9995","line2":"2 68176  53.1591  10.2577 0001170  70.3877 289.7255 15.42176279  9143","category":"Starlink"},{"name":"ARIANE 3 DEB","line1":"1 27648U 84081F   26103.67231288 -.00000161  00000+0 -65738-2 0  9997","line2":"2 27648   5.5176  50.3804 7168820 174.8959 201.7934  2.10232339205129","category":"Other"},{"name":"STARLINK-1104","line1":"1 44922U 20001J   23362.13590358  .00002223  00000+0  16806-3 0  9996","line2":"2 44922  53.0542 349.4246 0001387  97.4897 262.6249 15.06400949218883","category":"Starlink"},{"name":"JANUS-1","line1":"1 55564U 23019C   23178.71964059  .01888727  26270-2  23445-2 0  9992","line2":"2 55564  37.1691 304.5479 0015831  18.5789 341.5566 16.07106653 21493","category":"Other"},{"name":"STARLINK-32187","line1":"1 60337U 24136J   24245.58334491  .00484630  00000+0  21757-2 0  9997","line2":"2 60337  53.1485 130.4175 0004669 230.3829 139.0137 15.82294424  5976","category":"Starlink"},{"name":"STARLINK-35283","line1":"1 66478U 25262Y   26124.00759857  .00018555  00000+0  68162-3 0  9993","line2":"2 66478  43.0023 344.0140 0001476 271.5236  88.5447 15.27603547 27369","category":"Starlink"},{"name":"COSMOS 2251 DEB","line1":"1 34850U 93036ABU 23179.22433309  .00110194  00000+0  59102-2 0  9993","line2":"2 34850  73.9864 125.7790 0018968 129.7377 230.5492 15.14256878758000","category":"Other"},{"name":"ONEWEB-0403","line1":"1 50483U 21132Q   26124.56523510  .00000928  00000+0  23211-2 0  9990","line2":"2 50483  87.9191 344.1343 0001822  87.1523 272.9818 13.18680340215849","category":"Other"},{"name":"STARLINK-33832","line1":"1 63637U 25083D   26124.48479614  .00020024  00000+0  73539-3 0  9998","line2":"2 63637  42.9974  49.8002 0000943 280.6316  79.4429 15.27571642 58601","category":"Starlink"},{"name":"UNKNOWN","line1":"1 81521U          23197.56070490  .00925641  00000+0  16181-1 0  9994","line2":"2 81521  99.6626 122.0388 0020605 150.6409  28.5125 15.48004731513150","category":"Other"},{"name":"FLOCK 4S-41","line1":"1 47698U 21006ER  23361.75257447  .00027045  00000+0  73121-3 0  9993","line2":"2 47698  97.3697  60.8756 0007326 103.5671 256.6390 15.37669120162370","category":"Other"},{"name":"STARLINK-6355","line1":"1 57356U 23099AE  26124.51057639  .00002667  00000+0  10646-3 0  9990","line2":"2 57356  43.0036 286.6679 0001756 272.9307  87.1343 15.27569671154732","category":"Starlink"},{"name":"CZ-3A DEB","line1":"1 35563U 07003X   26098.54134574 -.00000060  00000+0 -24162-3 0  9995","line2":"2 35563  21.7762 187.5586 7474256  55.1191 357.3126  1.89944636 14750","category":"Other"},{"name":"CYCLOPS (RS29S)","line1":"1 53373U 22096D   24063.41486467  .07516655  25945-5  88211-3 0  9993","line2":"2 53373  97.3635 344.5166 0006006 175.3577 184.7778 16.36718985 88183","category":"Other"},{"name":"FENGYUN 1C DEB","line1":"1 29774U 99025BQ  26104.86805308  .00000188  00000+0  10321-3 0  9991","line2":"2 29774  99.0922  54.0010 0050970 130.7005 296.6759 14.22860574998266","category":"Weather"},{"name":"FENGYUN 1C DEB","line1":"1 31195U 99025BJZ 26103.80289480  .00000298  00000+0  17500-3 0  9999","line2":"2 31195  98.7615 138.7453 0171520 196.7696 162.7759 14.08049834978167","category":"Weather"},{"name":"STARLINK-30610","line1":"1 58082U 23160H   26124.47711665  .00000692  00000+0  34667-4 0  9993","line2":"2 58082  43.0037 123.1790 0001362 270.2608  89.8088 15.27572012141472","category":"Starlink"},{"name":"STARLINK-34281","line1":"1 64260U 25120E   26124.56105708  .00036023  00000+0  83314-3 0  9990","line2":"2 64260  53.1604 216.2295 0001349 139.2779 220.8328 15.42167963 52434","category":"Starlink"},{"name":"CZ-6A DEB","line1":"1 60975U 24140MA  24249.53184781  .00004376  00000+0  90420-3 0  9993","line2":"2 60975  88.9873 347.4863 0134117 333.6260  25.8161 14.54665472  2523","category":"Other"},{"name":"STARLINK-36256","line1":"1 67103U 25299B   26124.51447839  .00022101  00000+0  80971-3 0  9993","line2":"2 67103  42.9996 213.7549 0000796 253.8871 106.1893 15.27602655 21656","category":"Starlink"}]}